[{"OBJECT_NAME":"STARLINK-3193","OBJECT_ID":"2021-115AG","EPOCH":"2026-03-09T09:57:17.242560","MEAN_MOTION":15.08833512,"ECCENTRICITY":0.00011964,"INCLINATION":53.217,"RA_OF_ASC_NODE":140.458,"ARG_OF_PERICENTER":100.8039,"MEAN_ANOMALY":259.3088,"EPHEMERIS_TYPE":0,"CLASSIFICATION_TYPE":"U","NORAD_CAT_ID":49754,"ELEMENT_SET_NO":999,"REV_AT_EPOCH":23563,"BSTAR":-1.8684525e-5,"MEAN_MOTION_DOT":-5.85e-6,"MEAN_MOTION_DDOT":0},{"OBJECT_NAME":"CZ-4C DEB","OBJECT_ID":"2018-031H","EPOCH":"2026-03-09T10:10:58.582560","MEAN_MOTION":15.14033759,"ECCENTRICITY":0.00199639,"INCLINATION":98.1663,"RA_OF_ASC_NODE":242.9335,"ARG_OF_PERICENTER":272.748,"MEAN_ANOMALY":87.1465,"EPHEMERIS_TYPE":0,"CLASSIFICATION_TYPE":"U","NORAD_CAT_ID":43266,"ELEMENT_SET_NO":999,"REV_AT_EPOCH":43166,"BSTAR":0.00079064643,"MEAN_MOTION_DOT":0.00014379,"MEAN_MOTION_DDOT":0}]
